ORBCOMM FM37            
1 33064U 08031E   24209.90582260  .00002510  00000+0  38219-3 0  9990
2 33064  48.4405  82.2816 0005451  68.0418  46.6063 14.76900443866061
ORBCOMM FM40            
1 33065U 08031F   24209.89836384  .00003258  00000+0  47140-3 0  9991
2 33065  48.4426  70.8997 0006647  79.1343  44.8575 14.78342298866110
VESSELSAT 1             
1 37840U 11058C   24209.77770374  .00000424  00000+0  86864-4 0  9991
2 37840  19.9610 256.6649 0013556 218.0191 141.9257 14.11179725660425
ORBCOMM FM109           
1 40086U 14040A   24209.90150747  .00001603  00000+0  39115-3 0  9998
2 40086  47.0039 106.5157 0002294 270.4725  89.5897 14.56868164533750
ORBCOMM FM107           
1 40087U 14040B   24209.86669893  .00001180  00000+0  29795-3 0  9994
2 40087  47.0055 107.6529 0001550 241.8173 118.2556 14.56866359533821
ORBCOMM FM106           
1 40088U 14040C   24209.70881477  .00001793  00000+0  34615-3 0  9999
2 40088  47.0612 315.7283 0017645 356.2478   3.8277 14.67358217535788
ORBCOMM FM111           
1 40089U 14040D   24209.42499949  .00003411  00000+0  44431-3 0  9994
2 40089  47.0021 208.8187 0032091  79.4697 280.9811 14.82316896541971
ORBCOMM FM104           
1 40090U 14040E   24209.85067367  .00001076  00000+0  28377-3 0  9994
2 40090  47.0051 137.5317 0016540 164.8097 195.3287 14.55332668533357
